BEESAT-4                
1 41619U 16040W   22102.39270755  .00016356  00000+0  58015-3 0  9999
2 41619  97.2258 154.8520 0009168   1.8344 358.2929 15.29105435310620
CAS-2T & KS-1Q          
1 41847U 16066G   22102.89235467  .00001057  00000+0  16724-3 0  9999
2 41847  98.5568 167.6147 0365006  46.0971 316.9746 14.38483739284927
NAYIF-1 (EO-88)         
1 42017U 17008BX  22102.72547112  .00021091  00000+0  67717-3 0  9999
2 42017  97.2755 169.8815 0006765 120.6846 239.5064 15.32301616287004
ZHUHAI-1 02 (CAS-4B)    
1 42759U 17034B   22102.97104039  .00004236  00000+0  25962-3 0  9993
2 42759  43.0188 333.4983 0009582 242.2775 251.1606 15.11338353266445
ZHUHAI-1 01 (CAS-4A)    
1 42761U 17034D   22102.80470815  .00004459  00000+0  27190-3 0  9998
2 42761  43.0181 333.2498 0010441 238.2611 212.6543 15.11424262266425
MAX VALIER SAT          
1 42778U 17036P   22102.89866474  .00009660  00000+0  38041-3 0  9993
2 42778  97.2146 146.2783 0011199 189.0047 171.0992 15.25755555266907
RADFXSAT (FOX-1B)       
1 43017U 17073E   22102.70755875  .00006430  00000+0  48560-3 0  9992
2 43017  97.6829 359.5813 0251828  43.3391 318.7326 14.80798611237389
FOX-1D (AO-92)          
1 43137U 18004AC  22102.76915968  .00012959  00000+0  47732-3 0  9990
2 43137  97.3725 178.5743 0007195 226.2666 133.7979 15.27939205236317
DIWATA-2B               
1 43678U 18084H   22102.79724706  .00001600  00000+0  16330-3 0  9990
2 43678  97.9587 235.3430 0011167 137.5824 222.6249 14.92033299188063
ES'HAIL 2               
1 43700U 18090A   22102.85329983  .00000144  00000+0  00000+0 0  9993
2 43700   0.0208 200.1720 0002463 210.9673 122.8631  1.00269956 12375
FOX-1CLIFF (AO-95)      
1 43770U 18099N   22102.71839342  .00003108  00000+0  28119-3 0  9997
2 43770  97.6257 170.7756 0015460 133.6138 226.6369 14.96044068183180
ITASAT 1                
1 43786U 18099AE  22102.71921040  .00002665  00000+0  24058-3 0  9996
2 43786  97.6279 171.6568 0016133 126.9831 233.2870 14.96244339183224
JY1SAT (JO-97)          
1 43803U 18099AX  22102.75685089  .00002937  00000+0  26181-3 0  9991
2 43803  97.6255 171.4352 0016158 124.9437 235.3305 14.96657980183242
UWE-4                   
1 43880U 18111E   22102.73656277  .00003351  00000+0  29052-3 0  9997
2 43880  97.6718  10.2004 0012170 175.2325 184.9015 14.97706228179861
NEXUS (FO-99)           
1 43937U 19003F   22102.82646654  .00016694  00000+0  59124-3 0  9996
2 43937  97.1393 138.7823 0021937  33.6351 326.6277 15.28955926179940
PSAT2 (NO-104)          
1 44354U 19036R   22102.81763627  .00060637 -55565-5  62108-3 0  9990
2 44354  28.5266 270.4587 0258709 315.7982  42.2212 15.31513095154589
BRICSAT2 (NO-103)       
1 44355U 19036S   22102.37755181  .00883359  34339-3  13622-2 0  9991
2 44355  28.5142 143.2561 0065720 160.3943 199.9217 15.98818577155809
JAISAT-1                
1 44419U 19038F   22102.86126518  .00013296  00000+0  68944-3 0  9991
2 44419  97.6297  72.5367 0019863   5.3251 354.8188 15.16117398153117
DUCHIFAT-3              
1 44854U 19089C   22102.77516622  .00003512  00000+0  27927-3 0  9995
2 44854  36.9660 129.5595 0007033  41.2956 318.8300 15.00534856128060
CAS-6 (TO-108)          
1 44881U 19093C   22102.87001638  .00000195  00000+0  31448-4 0  9995
2 44881  97.8941 183.0191 0015709  44.8060 315.4380 14.81634785125067
RS-44 & BREEZE-KM R/B   
1 44909U 19096E   22102.90949208  .00000033  00000+0  79214-4 0  9991
2 44909  82.5172 273.8223 0218346 112.9200 249.5108 12.79713146107120
ORBITAL FACTORY 2 (OF-2)
1 45113U 19071C   22102.79169327  .00035038  00000+0  81483-3 0  9998
2 45113  51.6407  21.6238 0008310 295.6246  64.3881 15.41950655123239
HUSKYSAT-1 (HO-107)     
1 45119U 19071J   22102.76641954  .00031460  00000+0  74611-3 0  9992
2 45119  51.6415  21.4351 0008155 291.8640  68.1478 15.41415372123226
BY70-2                  
1 45857U 20042B   22102.81594224  .00006540  00000+0  89533-3 0  9994
2 45857  97.9552 180.3301 0008995 332.4417  27.6221 14.78801128 95755
SALSAT                  
1 46495U 20068K   22102.84472213  .00003376  00000+0  24707-3 0  9993
2 46495  97.7246  44.1634 0017700 136.1796 224.0838 15.04152060 84323
BY70-3                  
1 46839U 20079N   22102.78145669  .00025025  00000+0  64979-3 0  9992
2 46839  97.2033 175.8632 0006437 198.4542 310.2370 15.38936481 80137
RADFXSAT-2 (AO-109)     
1 47311U 21002C   22102.76039912  .00012341  00000+0  51399-3 0  9995
2 47311  60.6846 249.3204 0012422 238.0140 121.9741 15.24063064 68449
UVSQ-SAT                
1 47438U 21006AB  22102.70551092  .00008149  00000+0  44142-3 0  9990
2 47438  97.4448 163.0840 0013414 139.1615 221.0625 15.14790895 67320
DIY-1 (ARDUIQUBE)       
1 47963U 21022AH  22102.71371524  .00020673  00000+0  12276-2 0  9990
2 47963  97.5385   4.9254 0018019   7.6450 352.5051 15.11200565 57013
XW-3 (CAS-9)            
1 50466U 21131B   22102.85746931  .00000229  00000+0  89624-4 0  9994
2 50466  98.5826 180.1375 0004046   1.1105 359.0090 14.38464489 15483
